[{"OBJECT_NAME":"FORTE","OBJECT_ID":"1997-047A","EPOCH":"2026-03-09T21:41:12.798240","MEAN_MOTION":14.27898785,"ECCENTRICITY":0.00196357,"INCLINATION":69.9517,"RA_OF_ASC_NODE":238.2652,"ARG_OF_PERICENTER":49.0734,"MEAN_ANOMALY":311.2084,"EPHEMERIS_TYPE":0,"CLASSIFICATION_TYPE":"U","NORAD_CAT_ID":24920,"ELEMENT_SET_NO":999,"REV_AT_EPOCH":48451,"BSTAR":0.0001374801,"MEAN_MOTION_DOT":2.83e-6,"MEAN_MOTION_DDOT":0},{"OBJECT_NAME":"CZ-6A DEB","OBJECT_ID":"2022-151PL","EPOCH":"2026-03-09T14:55:17.598144","MEAN_MOTION":14.32130984,"ECCENTRICITY":0.003322,"INCLINATION":98.7794,"RA_OF_ASC_NODE":85.8458,"ARG_OF_PERICENTER":208.8988,"MEAN_ANOMALY":151.0356,"EPHEMERIS_TYPE":0,"CLASSIFICATION_TYPE":"U","NORAD_CAT_ID":54634,"ELEMENT_SET_NO":999,"REV_AT_EPOCH":17092,"BSTAR":0.0026239,"MEAN_MOTION_DOT":7.063e-5,"MEAN_MOTION_DDOT":0}]
